{
  "type": "FeatureCollection",
  "features": [
    {
      "type": "Feature",
      "properties": {
        "norad_id": 41890,
        "name": "CYGFM07",
        "group": "weather",
        "lat": 30.349360271150978,
        "lon": 158.3744480772697,
        "alt_km": 410.21028746396405,
        "timestamp": "2025-12-10T14:53:36.768787+00:00",
        "meta_object_name": "CYGFM07",
        "meta_object_id": "2016-078G",
        "meta_epoch": "2025-12-10T06:39:24.609024",
        "meta_mean_motion": 15.49841895,
        "meta_eccentricity": 0.00096514,
        "meta_inclination": 34.9481,
        "meta_ra_of_asc_node": 37.5963,
        "meta_arg_of_pericenter": 194.2405,
        "meta_mean_anomaly": 165.8046,
        "meta_ephemeris_type": 0,
        "meta_classification_type": "U",
        "meta_norad_cat_id": 41890,
        "meta_element_set_no": 999,
        "meta_rev_at_epoch": 49957,
        "meta_bstar": 0.00052263158,
        "meta_mean_motion_dot": 0.00030166,
        "meta_mean_motion_ddot": 0,
        "tle_line1": "1 41890U 16078G   25344.27736816  .00030166  00000+0  52263-3 0  9998",
        "tle_line2": "2 41890  34.9481  37.5963 0009651 194.2405 165.8046 15.49841895499570"
      },
      "geometry": {
        "type": "Point",
        "coordinates": [
          158.3744480772697,
          30.349360271150978
        ]
      }
    },
    {
      "type": "Feature",
      "properties": {
        "norad_id": 41891,
        "name": "CYGFM03",
        "group": "weather",
        "lat": -24.473848692835002,
        "lon": -3.4204491039933806,
        "alt_km": 422.6811144123085,
        "timestamp": "2025-12-10T14:53:36.768796+00:00",
        "meta_object_name": "CYGFM03",
        "meta_object_id": "2016-078H",
        "meta_epoch": "2025-12-10T05:49:00.874272",
        "meta_mean_motion": 15.4974056,
        "meta_eccentricity": 0.0008957,
        "meta_inclination": 34.9434,
        "meta_ra_of_asc_node": 39.7427,
        "meta_arg_of_pericenter": 180.9927,
        "meta_mean_anomaly": 179.0779,
        "meta_ephemeris_type": 0,
        "meta_classification_type": "U",
        "meta_norad_cat_id": 41891,
        "meta_element_set_no": 999,
        "meta_rev_at_epoch": 49954,
        "meta_bstar": 0.00051500421,
        "meta_mean_motion_dot": 0.00029609,
        "meta_mean_motion_ddot": 0,
        "tle_line1": "1 41891U 16078H   25344.24237123  .00029609  00000+0  51500-3 0  9996",
        "tle_line2": "2 41891  34.9434  39.7427 0008957 180.9927 179.0779 15.49740560499541"
      },
      "geometry": {
        "type": "Point",
        "coordinates": [
          -3.4204491039933806,
          -24.473848692835002
        ]
      }
    },
    {
      "type": "Feature",
      "properties": {
        "norad_id": 43010,
        "name": "FENGYUN 3D",
        "group": "weather",
        "lat": -17.07651541447845,
        "lon": -46.31402560954452,
        "alt_km": 831.7795416244562,
        "timestamp": "2025-12-10T14:53:36.768805+00:00",
        "meta_object_name": "FENGYUN 3D",
        "meta_object_id": "2017-072A",
        "meta_epoch": "2025-12-10T06:31:03.048384",
        "meta_mean_motion": 14.19682399,
        "meta_eccentricity": 7.869e-05,
        "meta_inclination": 98.9893,
        "meta_ra_of_asc_node": 310.5446,
        "meta_arg_of_pericenter": 188.6474,
        "meta_mean_anomaly": 171.4688,
        "meta_ephemeris_type": 0,
        "meta_classification_type": "U",
        "meta_norad_cat_id": 43010,
        "meta_element_set_no": 999,
        "meta_rev_at_epoch": 41818,
        "meta_bstar": 0.0001188171,
        "meta_mean_motion_dot": 2.05e-06,
        "meta_mean_motion_ddot": 0,
        "tle_line1": "1 43010U 17072A   25344.27156306  .00000205  00000+0  11882-3 0  9992",
        "tle_line2": "2 43010  98.9893 310.5446 0000786 188.6474 171.4688 14.19682399418187"
      },
      "geometry": {
        "type": "Point",
        "coordinates": [
          -46.31402560954452,
          -17.07651541447845
        ]
      }
    },
    {
      "type": "Feature",
      "properties": {
        "norad_id": 43013,
        "name": "NOAA 20 (JPSS-1)",
        "group": "weather",
        "lat": 42.86811410225158,
        "lon": 109.16874360178898,
        "alt_km": 822.3076076947591,
        "timestamp": "2025-12-10T14:53:36.768814+00:00",
        "meta_object_name": "NOAA 20 (JPSS-1)",
        "meta_object_id": "2017-073A",
        "meta_epoch": "2025-12-10T07:29:11.826816",
        "meta_mean_motion": 14.19524727,
        "meta_eccentricity": 0.00021461,
        "meta_inclination": 98.7596,
        "meta_ra_of_asc_node": 280.6353,
        "meta_arg_of_pericenter": 90.7285,
        "meta_mean_anomaly": 269.4137,
        "meta_ephemeris_type": 0,
        "meta_classification_type": "U",
        "meta_norad_cat_id": 43013,
        "meta_element_set_no": 999,
        "meta_rev_at_epoch": 41767,
        "meta_bstar": 0.00010483839,
        "meta_mean_motion_dot": 1.77e-06,
        "meta_mean_motion_ddot": 0,
        "tle_line1": "1 43013U 17073A   25344.31194244  .00000177  00000+0  10484-3 0  9999",
        "tle_line2": "2 43013  98.7596 280.6353 0002146  90.7285 269.4137 14.19524727417677"
      },
      "geometry": {
        "type": "Point",
        "coordinates": [
          109.16874360178898,
          42.86811410225158
        ]
      }
    },
    {
      "type": "Feature",
      "properties": {
        "norad_id": 43226,
        "name": "GOES 17",
        "group": "weather",
        "lat": 0.35979932392220465,
        "lon": -146.5349237043406,
        "alt_km": 35779.504732508554,
        "timestamp": "2025-12-10T14:53:36.768825+00:00",
        "meta_object_name": "GOES 17",
        "meta_object_id": "2018-022A",
        "meta_epoch": "2025-12-10T04:23:38.620896",
        "meta_mean_motion": 1.00271635,
        "meta_eccentricity": 0.00033751,
        "meta_inclination": 0.4535,
        "meta_ra_of_asc_node": 89.1426,
        "meta_arg_of_pericenter": 186.9356,
        "meta_mean_anomaly": 139.4998,
        "meta_ephemeris_type": 0,
        "meta_classification_type": "U",
        "meta_norad_cat_id": 43226,
        "meta_element_set_no": 999,
        "meta_rev_at_epoch": 2852,
        "meta_bstar": 0,
        "meta_mean_motion_dot": -1.79e-06,
        "meta_mean_motion_ddot": 0,
        "tle_line1": "1 43226U 18022A   25344.18308589 -.00000179  00000+0  00000+0 0  9996",
        "tle_line2": "2 43226   0.4535  89.1426 0003375 186.9356 139.4998  1.00271635 28527"
      },
      "geometry": {
        "type": "Point",
        "coordinates": [
          -146.5349237043406,
          0.35979932392220465
        ]
      }
    },
    {
      "type": "Feature",
      "properties": {
        "norad_id": 43491,
        "name": "FENGYUN 2H",
        "group": "weather",
        "lat": -2.1694094186274286,
        "lon": 22.404242955881372,
        "alt_km": 35795.51121850004,
        "timestamp": "2025-12-10T14:53:36.768844+00:00",
        "meta_object_name": "FENGYUN 2H",
        "meta_object_id": "2018-050A",
        "meta_epoch": "2025-12-09T20:47:51.878688",
        "meta_mean_motion": 1.00271041,
        "meta_eccentricity": 0.00029444,
        "meta_inclination": 2.5434,
        "meta_ra_of_asc_node": 81.3538,
        "meta_arg_of_pericenter": 165.2045,
        "meta_mean_anomaly": 223.6196,
        "meta_ephemeris_type": 0,
        "meta_classification_type": "U",
        "meta_norad_cat_id": 43491,
        "meta_element_set_no": 999,
        "meta_rev_at_epoch": 2754,
        "meta_bstar": 0,
        "meta_mean_motion_dot": -1.27e-06,
        "meta_mean_motion_ddot": 0,
        "tle_line1": "1 43491U 18050A   25343.86657267 -.00000127  00000+0  00000+0 0  9998",
        "tle_line2": "2 43491   2.5434  81.3538 0002944 165.2045 223.6196  1.00271041 27544"
      },
      "geometry": {
        "type": "Point",
        "coordinates": [
          22.404242955881372,
          -2.1694094186274286
        ]
      }
    },
    {
      "type": "Feature",
      "properties": {
        "norad_id": 43689,
        "name": "METOP-C",
        "group": "weather",
        "lat": -78.54359065731627,
        "lon": 173.4011544084879,
        "alt_km": 828.3993310955466,
        "timestamp": "2025-12-10T14:53:36.768854+00:00",
        "meta_object_name": "METOP-C",
        "meta_object_id": "2018-087A",
        "meta_epoch": "2025-12-10T06:54:18.501696",
        "meta_mean_motion": 14.2151041,
        "meta_eccentricity": 0.00014434,
        "meta_inclination": 98.6933,
        "meta_ra_of_asc_node": 42.0949,
        "meta_arg_of_pericenter": 46.6602,
        "meta_mean_anomaly": 313.4695,
        "meta_ephemeris_type": 0,
        "meta_classification_type": "U",
        "meta_norad_cat_id": 43689,
        "meta_element_set_no": 999,
        "meta_rev_at_epoch": 36799,
        "meta_bstar": 0.00012359904,
        "meta_mean_motion_dot": 2.27e-06,
        "meta_mean_motion_ddot": 0,
        "tle_line1": "1 43689U 18087A   25344.28771414  .00000227  00000+0  12360-3 0  9991",
        "tle_line2": "2 43689  98.6933  42.0949 0001443  46.6602 313.4695 14.21510410367998"
      },
      "geometry": {
        "type": "Point",
        "coordinates": [
          173.4011544084879,
          -78.54359065731627
        ]
      }
    }
  ]
}